{
  "type": "FeatureCollection",
  "features": [
    {
      "type": "Feature",
      "properties": {
        "norad_id": 39617,
        "name": "ASTRA 5B (EGNOS/PRN 123)",
        "group": "gnss",
        "lat": -0.046663967441831204,
        "lon": -40.47765079537096,
        "alt_km": 35778.078676083554,
        "timestamp": "2025-12-05T14:45:15.543465+00:00",
        "meta_object_name": "ASTRA 5B (EGNOS/PRN 123)",
        "meta_object_id": "2014-011B",
        "meta_epoch": "2025-12-04T13:50:18.964896",
        "meta_mean_motion": 1.00267772,
        "meta_eccentricity": 0.000455,
        "meta_inclination": 0.0487,
        "meta_ra_of_asc_node": 15.352,
        "meta_arg_of_pericenter": 242.0014,
        "meta_mean_anomaly": 47.3935,
        "meta_ephemeris_type": 0,
        "meta_classification_type": "U",
        "meta_norad_cat_id": 39617,
        "meta_element_set_no": 999,
        "meta_rev_at_epoch": 4271,
        "meta_bstar": 0,
        "meta_mean_motion_dot": 1.51e-06,
        "meta_mean_motion_ddot": 0,
        "tle_line1": "1 39617U 14011B   25338.57660839  .00000151  00000+0  00000+0 0  9993",
        "tle_line2": "2 39617   0.0487  15.3520 0004550 242.0014  47.3935  1.00267772 42717"
      },
      "geometry": {
        "type": "Point",
        "coordinates": [
          -40.47765079537096,
          -0.046663967441831204
        ]
      }
    },
    {
      "type": "Feature",
      "properties": {
        "norad_id": 39620,
        "name": "COSMOS 2492 (754)",
        "group": "gnss",
        "lat": 53.42603593799388,
        "lon": -1.3911069459005694,
        "alt_km": 19136.808936153586,
        "timestamp": "2025-12-05T14:45:15.543477+00:00",
        "meta_object_name": "COSMOS 2492 (754)",
        "meta_object_id": "2014-012A",
        "meta_epoch": "2025-12-02T17:14:30.403680",
        "meta_mean_motion": 2.13103072,
        "meta_eccentricity": 0.00141646,
        "meta_inclination": 65.4134,
        "meta_ra_of_asc_node": 320.6107,
        "meta_arg_of_pericenter": 311.0276,
        "meta_mean_anomaly": 48.8557,
        "meta_ephemeris_type": 0,
        "meta_classification_type": "U",
        "meta_norad_cat_id": 39620,
        "meta_element_set_no": 999,
        "meta_rev_at_epoch": 9105,
        "meta_bstar": 0,
        "meta_mean_motion_dot": -3.6e-07,
        "meta_mean_motion_ddot": 0,
        "tle_line1": "1 39620U 14012A   25336.71840745 -.00000036  00000+0  00000+0 0  9991",
        "tle_line2": "2 39620  65.4134 320.6107 0014164 311.0276  48.8557  2.13103072 91051"
      },
      "geometry": {
        "type": "Point",
        "coordinates": [
          -1.3911069459005694,
          53.42603593799388
        ]
      }
    },
    {
      "type": "Feature",
      "properties": {
        "norad_id": 39635,
        "name": "IRNSS-1B",
        "group": "gnss",
        "lat": 27.488856035786668,
        "lon": -6.958999341858528,
        "alt_km": 35764.22941029554,
        "timestamp": "2025-12-05T14:45:15.543488+00:00",
        "meta_object_name": "IRNSS-1B",
        "meta_object_id": "2014-017A",
        "meta_epoch": "2025-12-03T19:41:17.178144",
        "meta_mean_motion": 1.0027569,
        "meta_eccentricity": 0.00176274,
        "meta_inclination": 28.8399,
        "meta_ra_of_asc_node": 243.7446,
        "meta_arg_of_pericenter": 183.6842,
        "meta_mean_anomaly": 355.8349,
        "meta_ephemeris_type": 0,
        "meta_classification_type": "U",
        "meta_norad_cat_id": 39635,
        "meta_element_set_no": 999,
        "meta_rev_at_epoch": 4283,
        "meta_bstar": 0,
        "meta_mean_motion_dot": 1.25e-06,
        "meta_mean_motion_ddot": 0,
        "tle_line1": "1 39635U 14017A   25337.82033771  .00000125  00000+0  00000+0 0  9996",
        "tle_line2": "2 39635  28.8399 243.7446 0017627 183.6842 355.8349  1.00275690 42836"
      },
      "geometry": {
        "type": "Point",
        "coordinates": [
          -6.958999341858528,
          27.488856035786668
        ]
      }
    },
    {
      "type": "Feature",
      "properties": {
        "norad_id": 39727,
        "name": "LUCH 5V (SDCM/PRN 141)",
        "group": "gnss",
        "lat": -3.0157974192001835,
        "lon": 30.88998737297458,
        "alt_km": 35796.321458373524,
        "timestamp": "2025-12-05T14:45:15.543502+00:00",
        "meta_object_name": "LUCH 5V (SDCM/PRN 141)",
        "meta_object_id": "2014-023A",
        "meta_epoch": "2025-12-03T19:58:11.808768",
        "meta_mean_motion": 1.00271692,
        "meta_eccentricity": 0.00045321,
        "meta_inclination": 4.6454,
        "meta_ra_of_asc_node": 71.6144,
        "meta_arg_of_pericenter": 199.1759,
        "meta_mean_anomaly": 196.4512,
        "meta_ephemeris_type": 0,
        "meta_classification_type": "U",
        "meta_norad_cat_id": 39727,
        "meta_element_set_no": 999,
        "meta_rev_at_epoch": 4240,
        "meta_bstar": 0,
        "meta_mean_motion_dot": -2.55e-06,
        "meta_mean_motion_ddot": 0,
        "tle_line1": "1 39727U 14023A   25337.83208112 -.00000255  00000+0  00000+0 0  9994",
        "tle_line2": "2 39727   4.6454  71.6144 0004532 199.1759 196.4512  1.00271692 42407"
      },
      "geometry": {
        "type": "Point",
        "coordinates": [
          30.88998737297458,
          -3.0157974192001835
        ]
      }
    },
    {
      "type": "Feature",
      "properties": {
        "norad_id": 39741,
        "name": "GPS BIIF-6  (PRN 06)",
        "group": "gnss",
        "lat": 53.00780400928334,
        "lon": 40.25840533045881,
        "alt_km": 20219.665861382764,
        "timestamp": "2025-12-05T14:45:15.543514+00:00",
        "meta_object_name": "GPS BIIF-6  (PRN 06)",
        "meta_object_id": "2014-026A",
        "meta_epoch": "2025-12-04T12:23:41.363808",
        "meta_mean_motion": 2.0056177,
        "meta_eccentricity": 0.003895,
        "meta_inclination": 56.5867,
        "meta_ra_of_asc_node": 339.0964,
        "meta_arg_of_pericenter": 318.2284,
        "meta_mean_anomaly": 41.4951,
        "meta_ephemeris_type": 0,
        "meta_classification_type": "U",
        "meta_norad_cat_id": 39741,
        "meta_element_set_no": 999,
        "meta_rev_at_epoch": 8463,
        "meta_bstar": 0,
        "meta_mean_motion_dot": -7e-07,
        "meta_mean_motion_ddot": 0,
        "tle_line1": "1 39741U 14026A   25338.51645097 -.00000070  00000+0  00000+0 0  9991",
        "tle_line2": "2 39741  56.5867 339.0964 0038950 318.2284  41.4951  2.00561770 84633"
      },
      "geometry": {
        "type": "Point",
        "coordinates": [
          40.25840533045881,
          53.00780400928334
        ]
      }
    },
    {
      "type": "Feature",
      "properties": {
        "norad_id": 40001,
        "name": "COSMOS 2500 (755)",
        "group": "gnss",
        "lat": -58.72257361294691,
        "lon": -88.85003011175395,
        "alt_km": 19128.91786115738,
        "timestamp": "2025-12-05T14:45:15.543525+00:00",
        "meta_object_name": "COSMOS 2500 (755)",
        "meta_object_id": "2014-032A",
        "meta_epoch": "2025-12-04T07:09:49.504896",
        "meta_mean_motion": 2.13106037,
        "meta_eccentricity": 0.0008267,
        "meta_inclination": 65.3482,
        "meta_ra_of_asc_node": 320.3199,
        "meta_arg_of_pericenter": 219.122,
        "meta_mean_anomaly": 140.8171,
        "meta_ephemeris_type": 0,
        "meta_classification_type": "U",
        "meta_norad_cat_id": 40001,
        "meta_element_set_no": 999,
        "meta_rev_at_epoch": 8930,
        "meta_bstar": 0,
        "meta_mean_motion_dot": -4.5e-07,
        "meta_mean_motion_ddot": 0,
        "tle_line1": "1 40001U 14032A   25338.29848964 -.00000045  00000+0  00000+0 0  9994",
        "tle_line2": "2 40001  65.3482 320.3199 0008267 219.1220 140.8171  2.13106037 89307"
      },
      "geometry": {
        "type": "Point",
        "coordinates": [
          -88.85003011175395,
          -58.72257361294691
        ]
      }
    },
    {
      "type": "Feature",
      "properties": {
        "norad_id": 40105,
        "name": "GPS BIIF-7  (PRN 09)",
        "group": "gnss",
        "lat": 7.782671325038764,
        "lon": 101.6158529373657,
        "alt_km": 20210.719170291835,
        "timestamp": "2025-12-05T14:45:15.543538+00:00",
        "meta_object_name": "GPS BIIF-7  (PRN 09)",
        "meta_object_id": "2014-045A",
        "meta_epoch": "2025-12-02T02:40:49.418112",
        "meta_mean_motion": 2.00571797,
        "meta_eccentricity": 0.00329353,
        "meta_inclination": 55.2223,
        "meta_ra_of_asc_node": 96.323,
        "meta_arg_of_pericenter": 119.6015,
        "meta_mean_anomaly": 240.7039,
        "meta_ephemeris_type": 0,
        "meta_classification_type": "U",
        "meta_norad_cat_id": 40105,
        "meta_element_set_no": 999,
        "meta_rev_at_epoch": 8212,
        "meta_bstar": 0,
        "meta_mean_motion_dot": 7e-08,
        "meta_mean_motion_ddot": 0,
        "tle_line1": "1 40105U 14045A   25336.11168308  .00000007  00000+0  00000+0 0  9996",
        "tle_line2": "2 40105  55.2223  96.3230 0032935 119.6015 240.7039  2.00571797 82125"
      },
      "geometry": {
        "type": "Point",
        "coordinates": [
          101.6158529373657,
          7.782671325038764
        ]
      }
    }
  ]
}